{
  "type": "FeatureCollection",
  "features": [
    {
      "type": "Feature",
      "properties": {
        "norad_id": 42917,
        "name": "QZS-3 (QZSS/PRN 199)",
        "group": "gnss",
        "lat": -0.03788117531394686,
        "lon": 99.88674622450213,
        "alt_km": 35794.45848508236,
        "timestamp": "2025-12-09T16:56:36.818142+00:00",
        "meta_object_name": "QZS-3 (QZSS/PRN 199)",
        "meta_object_id": "2017-048A",
        "meta_epoch": "2025-12-09T10:45:08.890848",
        "meta_mean_motion": 1.00273373,
        "meta_eccentricity": 0.0002149,
        "meta_inclination": 0.0635,
        "meta_ra_of_asc_node": 205.3009,
        "meta_arg_of_pericenter": 59.3095,
        "meta_mean_anomaly": 102.1641,
        "meta_ephemeris_type": 0,
        "meta_classification_type": "U",
        "meta_norad_cat_id": 42917,
        "meta_element_set_no": 999,
        "meta_rev_at_epoch": 3035,
        "meta_bstar": 0,
        "meta_mean_motion_dot": -3.45e-06,
        "meta_mean_motion_ddot": 0,
        "tle_line1": "1 42917U 17048A   25343.44801957 -.00000345  00000+0  00000+0 0  9999",
        "tle_line2": "2 42917   0.0635 205.3009 0002149  59.3095 102.1641  1.00273373 30357"
      },
      "geometry": {
        "type": "Point",
        "coordinates": [
          99.88674622450213,
          -0.03788117531394686
        ]
      }
    },
    {
      "type": "Feature",
      "properties": {
        "norad_id": 42939,
        "name": "COSMOS 2522 (752)",
        "group": "gnss",
        "lat": 47.105183763726004,
        "lon": -13.23505575197857,
        "alt_km": 19127.27374455577,
        "timestamp": "2025-12-09T16:56:36.818153+00:00",
        "meta_object_name": "COSMOS 2522 (752)",
        "meta_object_id": "2017-055A",
        "meta_epoch": "2025-12-08T03:13:49.063296",
        "meta_mean_motion": 2.13101881,
        "meta_eccentricity": 0.00064484,
        "meta_inclination": 64.0758,
        "meta_ra_of_asc_node": 198.386,
        "meta_arg_of_pericenter": 225.1717,
        "meta_mean_anomaly": 134.8539,
        "meta_ephemeris_type": 0,
        "meta_classification_type": "U",
        "meta_norad_cat_id": 42939,
        "meta_element_set_no": 999,
        "meta_rev_at_epoch": 6390,
        "meta_bstar": 0,
        "meta_mean_motion_dot": 5.1e-07,
        "meta_mean_motion_ddot": 0,
        "tle_line1": "1 42939U 17055A   25342.13459564  .00000051  00000+0  00000+0 0  9992",
        "tle_line2": "2 42939  64.0758 198.3860 0006448 225.1717 134.8539  2.13101881 63907"
      },
      "geometry": {
        "type": "Point",
        "coordinates": [
          -13.23505575197857,
          47.105183763726004
        ]
      }
    },
    {
      "type": "Feature",
      "properties": {
        "norad_id": 42965,
        "name": "QZS-4 (QZSS/PRN 195)",
        "group": "gnss",
        "lat": 34.24706256489751,
        "lon": 112.26083012034593,
        "alt_km": 38547.97372843517,
        "timestamp": "2025-12-09T16:56:36.818166+00:00",
        "meta_object_name": "QZS-4 (QZSS/PRN 195)",
        "meta_object_id": "2017-062A",
        "meta_epoch": "2025-12-08T21:03:55.466784",
        "meta_mean_motion": 1.00253453,
        "meta_eccentricity": 0.0752304,
        "meta_inclination": 40.2277,
        "meta_ra_of_asc_node": 345.9194,
        "meta_arg_of_pericenter": 271.4557,
        "meta_mean_anomaly": 273.1936,
        "meta_ephemeris_type": 0,
        "meta_classification_type": "U",
        "meta_norad_cat_id": 42965,
        "meta_element_set_no": 999,
        "meta_rev_at_epoch": 2989,
        "meta_bstar": 0,
        "meta_mean_motion_dot": -3.54e-06,
        "meta_mean_motion_ddot": 0,
        "tle_line1": "1 42965U 17062A   25342.87772531 -.00000354  00000+0  00000+0 0  9999",
        "tle_line2": "2 42965  40.2277 345.9194 0752304 271.4557 273.1936  1.00253453 29899"
      },
      "geometry": {
        "type": "Point",
        "coordinates": [
          112.26083012034593,
          34.24706256489751
        ]
      }
    },
    {
      "type": "Feature",
      "properties": {
        "norad_id": 43001,
        "name": "BEIDOU-3 M1 (C19)",
        "group": "gnss",
        "lat": 55.038203350364014,
        "lon": 140.25405369047513,
        "alt_km": 21539.588525937164,
        "timestamp": "2025-12-09T16:56:36.818177+00:00",
        "meta_object_name": "BEIDOU-3 M1 (C19)",
        "meta_object_id": "2017-069A",
        "meta_epoch": "2025-12-07T23:26:52.374048",
        "meta_mean_motion": 1.86230858,
        "meta_eccentricity": 0.0009017,
        "meta_inclination": 56.5233,
        "meta_ra_of_asc_node": 69.3913,
        "meta_arg_of_pericenter": 303.8137,
        "meta_mean_anomaly": 56.1206,
        "meta_ephemeris_type": 0,
        "meta_classification_type": "U",
        "meta_norad_cat_id": 43001,
        "meta_element_set_no": 999,
        "meta_rev_at_epoch": 5504,
        "meta_bstar": 0,
        "meta_mean_motion_dot": -4.4e-07,
        "meta_mean_motion_ddot": 0,
        "tle_line1": "1 43001U 17069A   25341.97699507 -.00000044  00000+0  00000+0 0  9995",
        "tle_line2": "2 43001  56.5233  69.3913 0009017 303.8137  56.1206  1.86230858 55042"
      },
      "geometry": {
        "type": "Point",
        "coordinates": [
          140.25405369047513,
          55.038203350364014
        ]
      }
    },
    {
      "type": "Feature",
      "properties": {
        "norad_id": 43002,
        "name": "BEIDOU-3 M2 (C20)",
        "group": "gnss",
        "lat": 45.923886386707174,
        "lon": -153.65548767471225,
        "alt_km": 21537.295938322506,
        "timestamp": "2025-12-09T16:56:36.818191+00:00",
        "meta_object_name": "BEIDOU-3 M2 (C20)",
        "meta_object_id": "2017-069B",
        "meta_epoch": "2025-12-08T23:44:32.826912",
        "meta_mean_motion": 1.86230548,
        "meta_eccentricity": 0.00062161,
        "meta_inclination": 56.5232,
        "meta_ra_of_asc_node": 69.3945,
        "meta_arg_of_pericenter": 332.7308,
        "meta_mean_anomaly": 27.2585,
        "meta_ephemeris_type": 0,
        "meta_classification_type": "U",
        "meta_norad_cat_id": 43002,
        "meta_element_set_no": 999,
        "meta_rev_at_epoch": 5505,
        "meta_bstar": 0,
        "meta_mean_motion_dot": -4.6e-07,
        "meta_mean_motion_ddot": 0,
        "tle_line1": "1 43002U 17069B   25342.98926883 -.00000046  00000+0  00000+0 0  9990",
        "tle_line2": "2 43002  56.5232  69.3945 0006216 332.7308  27.2585  1.86230548 55052"
      },
      "geometry": {
        "type": "Point",
        "coordinates": [
          -153.65548767471225,
          45.923886386707174
        ]
      }
    },
    {
      "type": "Feature",
      "properties": {
        "norad_id": 43055,
        "name": "GSAT0215 (GALILEO 19)",
        "group": "gnss",
        "lat": 54.70417626243901,
        "lon": -33.026892973074816,
        "alt_km": 23217.389407510254,
        "timestamp": "2025-12-09T16:56:36.818205+00:00",
        "meta_object_name": "GSAT0215 (GALILEO 19)",
        "meta_object_id": "2017-079A",
        "meta_epoch": "2025-12-07T04:52:59.598912",
        "meta_mean_motion": 1.70473814,
        "meta_eccentricity": 0.000129,
        "meta_inclination": 55.132,
        "meta_ra_of_asc_node": 226.7904,
        "meta_arg_of_pericenter": 342.2986,
        "meta_mean_anomaly": 17.7924,
        "meta_ephemeris_type": 0,
        "meta_classification_type": "U",
        "meta_norad_cat_id": 43055,
        "meta_element_set_no": 999,
        "meta_rev_at_epoch": 4971,
        "meta_bstar": 0,
        "meta_mean_motion_dot": 2.6e-07,
        "meta_mean_motion_ddot": 0,
        "tle_line1": "1 43055U 17079A   25341.20346758  .00000026  00000+0  00000+0 0  9997",
        "tle_line2": "2 43055  55.1320 226.7904 0001290 342.2986  17.7924  1.70473814 49717"
      },
      "geometry": {
        "type": "Point",
        "coordinates": [
          -33.026892973074816,
          54.70417626243901
        ]
      }
    },
    {
      "type": "Feature",
      "properties": {
        "norad_id": 43056,
        "name": "GSAT0216 (GALILEO 20)",
        "group": "gnss",
        "lat": -54.51540085780251,
        "lon": 148.98606884611843,
        "alt_km": 23222.485032229935,
        "timestamp": "2025-12-09T16:56:36.818217+00:00",
        "meta_object_name": "GSAT0216 (GALILEO 20)",
        "meta_object_id": "2017-079B",
        "meta_epoch": "2025-12-08T01:57:06.766848",
        "meta_mean_motion": 1.70473892,
        "meta_eccentricity": 0.00025149,
        "meta_inclination": 55.132,
        "meta_ra_of_asc_node": 226.7661,
        "meta_arg_of_pericenter": 318.3772,
        "meta_mean_anomaly": 41.6956,
        "meta_ephemeris_type": 0,
        "meta_classification_type": "U",
        "meta_norad_cat_id": 43056,
        "meta_element_set_no": 999,
        "meta_rev_at_epoch": 4974,
        "meta_bstar": 0,
        "meta_mean_motion_dot": 1.9e-07,
        "meta_mean_motion_ddot": 0,
        "tle_line1": "1 43056U 17079B   25342.08132832  .00000019  00000+0  00000+0 0  9993",
        "tle_line2": "2 43056  55.1320 226.7661 0002514 318.3772  41.6956  1.70473892 49745"
      },
      "geometry": {
        "type": "Point",
        "coordinates": [
          148.98606884611843,
          -54.51540085780251
        ]
      }
    }
  ]
}